OBJECT_NAME,OBJECT_ID,EPOCH,MEAN_MOTION,ECCENTRICITY,INCLINATION,RA_OF_ASC_NODE,ARG_OF_PERICENTER,MEAN_ANOMALY,EPHEMERIS_TYPE,CLASSIFICATION_TYPE,NORAD_CAT_ID,ELEMENT_SET_NO,REV_AT_EPOCH,BSTAR,MEAN_MOTION_DOT,MEAN_MOTION_DDOT
MONITOR-2 (RS39S),2023-091U,2026-07-02T06:23:44.435328,15.19051360,.00124589,97.5061,241.4524,65.3109,294.9421,0,U,57184,999,16624,.27187261E-3,.564E-4,0
SVYATOBOR 1 (RS60S),2023-091X,2026-07-02T06:21:29.536416,15.26872842,.00100306,97.5080,247.1669,48.1865,312.0229,0,U,57187,999,16661,.41044177E-3,.1078E-3,0
HORS 1,2023-091Y,2026-07-02T05:59:06.823392,15.26986727,.00095147,97.5058,246.9117,48.4653,311.7400,0,U,57188,999,16661,.41083141E-3,.10826E-3,0
VIZARD-METEO (RS38S),2023-091Z,2026-07-02T06:13:04.099008,15.36509778,.00069659,97.5085,253.0502,29.1957,330.9675,0,U,57189,999,16700,.53868761E-3,.19149E-3,0
SITRO-AIS 6 (CHIRKIN),2023-091AC,2026-07-02T06:15:39.400416,15.26224836,.00124225,97.5058,246.3447,59.5193,300.7271,0,U,57192,999,16658,.46861356E-3,.12091E-3,0
SITRO-AIS 8 (ANOKHIN),2023-091AD,2026-07-02T05:41:46.639968,15.32549416,.00108356,97.5048,248.9329,52.4959,307.7266,0,U,57193,999,16675,.52526262E-3,.16476E-3,0
SITRO-AIS 7 (FARTUSHNIY),2023-091AE,2026-07-02T06:24:40.238496,15.25905856,.00123354,97.5055,246.1680,60.5182,299.7285,0,U,57194,999,16657,.45466666E-3,.11615E-3,0
AVION KALUGA 650,2023-091AF,2026-07-02T05:36:01.988640,15.20514372,.00115569,97.5079,242.7496,63.8848,296.3575,0,U,57195,999,16631,.31544473E-3,.6839E-4,0
HORS 2,2023-091AG,2026-07-02T06:02:15.197856,15.32275671,.00082311,97.5081,250.4895,41.2081,318.9781,0,U,57196,999,16683,.49069477E-3,.1524E-3,0
A-SEANSAT-PG1,2023-091AH,2026-07-02T05:50:37.534272,15.37486360,.00070021,97.5072,253.1507,37.4472,322.7259,0,U,57197,999,16702,.57023958E-3,.20929E-3,0
SITRO-AIS 10 (BURDAEV),2023-091AK,2026-07-02T06:28:37.552512,15.39186268,.00061383,97.5074,254.1776,31.9159,328.2457,0,U,57199,999,16708,.57872648E-3,.22449E-3,0
SITRO-AIS 9 (SHCHUKIN),2023-091AM,2026-07-02T05:40:00.116544,15.38681210,.00064246,97.5071,253.8610,31.9374,328.2259,0,U,57201,999,16706,.57201911E-3,.21825E-3,0
UTMN 2 (RS27S),2023-091AP,2026-07-02T06:39:15.265728,15.32424161,.00081219,97.5080,250.7101,36.6708,323.5087,0,U,57203,999,16685,.48711897E-3,.15199E-3,0
SITRO-AIS 12 (SMIRENNIY),2023-091AQ,2026-07-02T06:56:00.114144,15.38977688,.00058967,97.5085,254.3919,25.7710,334.3828,0,U,57204,999,16709,.58822885E-3,.22664E-3,0
SITRO-AIS 11 (SHEFFER),2023-091AU,2026-07-02T07:09:15.362208,15.39409963,.00058026,97.5083,254.6574,25.6888,334.4645,0,U,57208,999,16711,.57011858E-3,.22275E-3,0
H2SAT (HEINRICH HERTZ),2023-093A,2026-07-02T05:25:51.333312,1.00270447,.00011194,0.0303,96.6194,18.5905,247.2297,0,U,57213,999,1106,0,.12E-6,0
KUZGTU 1 (RS47S),2023-091AV,2026-07-02T06:32:19.594464,15.30211140,.00114182,97.5055,247.9084,50.4483,309.7764,0,U,57217,999,16668,.48305661E-3,.1408E-3,0
QIANKUN-1,2023-103B,2026-07-02T02:37:27.768288,16.07677687,.0035896,96.1427,226.8993,143.2789,217.0966,0,U,57422,999,16969,.18856232E-4,.16028E-3,.1759156E-5
FENGYUN 3F,2023-111A,2026-07-02T06:21:50.979168,14.19941667,.00014934,98.6831,252.9926,82.9317,277.2030,0,U,57490,999,15100,.51557293E-4,.66E-6,0
HJ-2F,2023-116A,2026-07-02T07:17:38.171328,15.22536704,.00080741,97.3840,188.2607,3.3743,356.7547,0,U,57519,999,16105,.39203047E-3,.9035E-4,0
XRISM,2023-137A,2026-07-01T21:45:59.409504,15.12591929,.00077288,31.0018,264.2474,112.3288,247.8171,0,U,57800,999,15509,.28864316E-3,.5265E-4,0
METEOR-M2 4,2024-039A,2026-07-02T07:22:01.609248,14.22431058,.00080238,98.7018,142.4154,120.9511,239.2456,0,U,59051,999,12141,.2521142E-4,.12E-6,0
GRBBETA,2024-128C,2026-07-02T06:50:42.823968,15.06732068,.00386902,61.9886,163.2905,137.9215,222.4861,0,U,60237,999,10854,.29929411E-3,.4329E-4,0
TRANSPORTER-11 OBJECT A,2024-149A,2026-07-02T03:59:25.747008,15.33154358,.00041555,97.3731,263.0511,149.6791,210.4692,0,U,60468,999,10435,.33264774E-3,.10583E-3,0
WARATAH SEED-1,2024-149B,2026-07-02T05:22:22.316160,15.36327666,.0002633,97.3688,263.8156,146.2124,213.9288,0,U,60469,999,10442,.44506135E-3,.15699E-3,0
PHISAT 2,2024-149C,2026-07-02T05:01:00.865920,15.31263870,.00024238,97.3755,262.3431,146.7516,213.3878,0,U,60470,999,10429,.2803398E-3,.839E-4,0
LEMUR-2-TOMATOKECHUP,2024-149D,2026-07-02T05:16:09.291936,15.36345605,.0002685,97.3798,265.3070,146.4226,213.7189,0,U,60471,999,10447,.34985923E-3,.12325E-3,0
CONNECTA IOT-1,2024-149E,2026-07-02T04:50:03.068160,15.23655796,.00016,97.3757,259.2395,169.9989,190.1280,0,U,60472,999,10408,.2035889E-3,.4811E-4,0
LOPEN,2024-149F,2026-07-02T04:56:54.161952,15.40124618,.00020375,97.3779,266.6950,156.4574,203.6766,0,U,60473,999,10457,.43332872E-3,.17294E-3,0
