MONITOR-2 (RS39S)       
1 57184U 23091U   26183.26648652  .00005640  00000+0  27187-3 0  9991
2 57184  97.5061 241.4524 0012458  65.3109 294.9421 15.19051360166242
SVYATOBOR 1 (RS60S)     
1 57187U 23091X   26183.26492519  .00010780  00000+0  41044-3 0  9992
2 57187  97.5080 247.1669 0010030  48.1865 312.0229 15.26872842166614
HORS 1                  
1 57188U 23091Y   26183.24938453  .00010826  00000+0  41083-3 0  9997
2 57188  97.5058 246.9117 0009514  48.4653 311.7400 15.26986727166613
VIZARD-METEO (RS38S)    
1 57189U 23091Z   26183.25907522  .00019149  00000+0  53869-3 0  9994
2 57189  97.5085 253.0502 0006965  29.1957 330.9675 15.36509778167000
SITRO-AIS 6 (CHIRKIN)   
1 57192U 23091AC  26183.26087269  .00012091  00000+0  46861-3 0  9999
2 57192  97.5058 246.3447 0012422  59.5193 300.7271 15.26224836166588
SITRO-AIS 8 (ANOKHIN)   
1 57193U 23091AD  26183.23734537  .00016476  00000+0  52526-3 0  9990
2 57193  97.5048 248.9329 0010835  52.4959 307.7266 15.32549416166754
SITRO-AIS 7 (FARTUSHNIY)
1 57194U 23091AE  26183.26713239  .00011615  00000+0  45467-3 0  9996
2 57194  97.5055 246.1680 0012335  60.5182 299.7285 15.25905856166575
AVION KALUGA 650        
1 57195U 23091AF  26183.23335635  .00006839  00000+0  31544-3 0  9997
2 57195  97.5079 242.7496 0011556  63.8848 296.3575 15.20514372166319
HORS 2                  
1 57196U 23091AG  26183.25156479  .00015240  00000+0  49069-3 0  9994
2 57196  97.5081 250.4895 0008231  41.2081 318.9781 15.32275671166833
A-SEANSAT-PG1           
1 57197U 23091AH  26183.24348998  .00020929  00000+0  57024-3 0  9993
2 57197  97.5072 253.1507 0007002  37.4472 322.7259 15.37486360167029
SITRO-AIS 10 (BURDAEV)  
1 57199U 23091AK  26183.26987908  .00022449  00000+0  57873-3 0  9998
2 57199  97.5074 254.1776 0006138  31.9159 328.2457 15.39186268167085
SITRO-AIS 9 (SHCHUKIN)  
1 57201U 23091AM  26183.23611246  .00021825  00000+0  57202-3 0  9991
2 57201  97.5071 253.8610 0006424  31.9374 328.2259 15.38681210167060
UTMN 2 (RS27S)          
1 57203U 23091AP  26183.27726002  .00015199  00000+0  48712-3 0  9997
2 57203  97.5080 250.7101 0008121  36.6708 323.5087 15.32424161166859
SITRO-AIS 12 (SMIRENNIY)
1 57204U 23091AQ  26183.28889021  .00022664  00000+0  58823-3 0  9999
2 57204  97.5085 254.3919 0005896  25.7710 334.3828 15.38977688167093
SITRO-AIS 11 (SHEFFER)  
1 57208U 23091AU  26183.29809447  .00022275  00000+0  57012-3 0  9995
2 57208  97.5083 254.6574 0005802  25.6888 334.4645 15.39409963167115
H2SAT (HEINRICH HERTZ)  
1 57213U 23093A   26183.22628858  .00000012  00000+0  00000+0 0  9997
2 57213   0.0303  96.6194 0001119  18.5905 247.2297  1.00270447 11067
KUZGTU 1 (RS47S)        
1 57217U 23091AV  26183.27244901  .00014080  00000+0  48306-3 0  9992
2 57217  97.5055 247.9084 0011418  50.4483 309.7764 15.30211140166689
QIANKUN-1               
1 57422U 23103B   26183.10934917  .00016028  17592-5  18856-4 0  9991
2 57422  96.1427 226.8993 0035896 143.2789 217.0966 16.07677687169692
FENGYUN 3F              
1 57490U 23111A   26183.26517337  .00000066  00000+0  51557-4 0  9995
2 57490  98.6831 252.9926 0001493  82.9317 277.2030 14.19941667151000
HJ-2F                   
1 57519U 23116A   26183.30391402  .00009035  00000+0  39203-3 0  9998
2 57519  97.3840 188.2607 0008074   3.3743 356.7547 15.22536704161056
XRISM                   
1 57800U 23137A   26182.90693761  .00005265  00000+0  28864-3 0  9994
2 57800  31.0018 264.2474 0007728 112.3288 247.8171 15.12591929155097
METEOR-M2 4             
1 59051U 24039A   26183.30696307  .00000012  00000+0  25211-4 0  9999
2 59051  98.7018 142.4154 0008023 120.9511 239.2456 14.22431058121418
GRBBETA                 
1 60237U 24128C   26183.28521787  .00004329  00000+0  29929-3 0  9996
2 60237  61.9886 163.2905 0038690 137.9215 222.4861 15.06732068108549
TRANSPORTER-11 OBJECT A 
1 60468U 24149A   26183.16627022  .00010583  00000+0  33265-3 0  9998
2 60468  97.3731 263.0511 0004155 149.6791 210.4692 15.33154358104351
WARATAH SEED-1          
1 60469U 24149B   26183.22386940  .00015699  00000+0  44506-3 0  9990
2 60469  97.3688 263.8156 0002633 146.2124 213.9288 15.36327666104422
PHISAT 2                
1 60470U 24149C   26183.20903780  .00008390  00000+0  28034-3 0  9995
2 60470  97.3755 262.3431 0002423 146.7516 213.3878 15.31263870104291
LEMUR-2-TOMATOKECHUP    
1 60471U 24149D   26183.21955199  .00012325  00000+0  34986-3 0  9994
2 60471  97.3798 265.3070 0002685 146.4226 213.7189 15.36345605104477
CONNECTA IOT-1          
1 60472U 24149E   26183.20142440  .00004811  00000+0  20359-3 0  9991
2 60472  97.3757 259.2395 0001600 169.9989 190.1280 15.23655796104085
LOPEN                   
1 60473U 24149F   26183.20618243  .00017294  00000+0  43333-3 0  9997
2 60473  97.3779 266.6950 0002037 156.4574 203.6766 15.40124618104571
